STARLINK-33614          
1 63372U 25063K   26188.44958870  .00014081  00000+0  42737-3 0  9996
2 63372  53.1586 212.7555 0001075 100.7442 259.3682 15.34379330 73147
STARLINK-33617          
1 63373U 25063L   26188.45588276  .00012238  00000+0  37275-3 0  9990
2 63373  53.1595 212.7882 0001462  79.2489 280.8678 15.34400527 73093
STARLINK-33618          
1 63374U 25063M   26188.46843458  .00014452  00000+0  43824-3 0  9995
2 63374  53.1585 212.1608 0001080  91.7086 268.4041 15.34385946 73151
STARLINK-33621          
1 63375U 25063N   26188.58335648  .00027183  00000+0  81328-3 0  9992
2 63375  53.1586 211.6953 0001254  58.2456 182.1239 15.34378575  5888
STARLINK-33539          
1 63376U 25063P   26187.60198064  .00018600  00000+0  63875-3 0  9995
2 63376  53.1575 230.1816 0001606 146.9648 213.1453 15.30190437 72770
STARLINK-33634          
1 63377U 25063Q   26188.09611442  .00016867  00000+0  58068-3 0  9991
2 63377  53.1572 217.6490 0001127  58.0283 302.0827 15.30180030 73044
STARLINK-33640          
1 63378U 25063R   26188.10138932  .00011024  00000+0  38405-3 0  9995
2 63378  53.1570 217.6798 0001055  89.1082 271.0040 15.30176214 73047
STARLINK-33636          
1 63379U 25063S   26188.09586368  .00064603  00000+0  15509-2 0  9994
2 63379  53.1583 214.8254 0004374  45.1964 314.9396 15.40775179 73032
STARLINK-33653          
1 63380U 25063T   26188.10113325  .00014962  00000+0  49323-3 0  9992
2 63380  53.1576 217.6827 0001093  63.3503 296.7611 15.31681063 72998
STARLINK-33643          
1 63381U 25063U   26188.10666816  .00014619  00000+0  50514-3 0  9994
2 63381  53.1563 217.7144 0001114  95.4775 264.6353 15.30173430 73046
STARLINK-33748          
1 63383U 25063W   26188.14129887  .00019150  00000+0  57630-3 0  9993
2 63383  53.1569 227.8702 0001157  88.7961 271.3174 15.34408317 72904
STARLINK-33658          
1 63384U 25063X   26187.33384648  .00021345  00000+0  64149-3 0  9994
2 63384  53.1578 217.8724 0001171  98.9191 261.1944 15.34379394 72973
STARLINK-33616          
1 63385U 25063Y   26187.43110400  .00013977  00000+0  42441-3 0  9992
2 63385  53.1577 231.2679 0001082  93.1981 266.9145 15.34372166 72748
STARLINK-33571          
1 63386U 25063Z   26188.10293423  .00014061  00000+0  42692-3 0  9998
2 63386  53.1584 226.1987 0001073  69.7677 290.3441 15.34369732 72872
STARLINK-33533          
1 63387U 25063AA  26187.45990956  .00017850  00000+0  53896-3 0  9998
2 63387  53.1573 217.2425 0001043 108.7914 251.3202 15.34353752 72949
STARLINK-33629          
1 63388U 25063AB  26188.10496937  .00012494  00000+0  38068-3 0  9995
2 63388  53.1564 214.1549 0001029 105.9214 254.1902 15.34366997 73099
STARLINK-33656          
1 63389U 25063AC  26188.11037415  .00011085  00000+0  36868-3 0  9990
2 63389  53.1574 217.0305 0001127 100.1034 260.0094 15.31679582 73057
LEMUR-2-BALTO           
1 63395U 25052BH  26188.19657571  .00003856  00000+0  31220-3 0  9998
2 63395  97.6926  81.5775 0005648 359.1139   1.0073 15.00313404 71767
TJS-16                  
1 63397U 25064A   26188.67588806 -.00000090  00000+0  00000+0 0  9996
2 63397   1.1477  81.3420 0002653 294.4347 313.8106  1.00271284  4592
STARLINK-33531          
1 63399U 25065A   26188.36499383  .00010827  00000+0  40252-3 0  9991
2 63399  42.9974 151.1472 0001497  11.9819 348.1068 15.27569977 71149
STARLINK-33652          
1 63400U 25065B   26188.27386430  .00024859  00000+0  90864-3 0  9996
2 63400  43.0078 151.3110 0003053 255.9304 104.1208 15.27621377 71137
STARLINK-33707          
1 63401U 25065C   26188.36113080  .00011877  00000+0  44058-3 0  9996
2 63401  43.0036 151.1175 0001950 280.7535  79.3097 15.27568574 71146
STARLINK-33668          
1 63402U 25065D   26188.37911180  .00007753  00000+0  29093-3 0  9995
2 63402  42.9965 151.2481 0000729 314.4254  45.6537 15.27583023 71144
STARLINK-33676          
1 63403U 25065E   26188.29446124  .00012410  00000+0  45996-3 0  9994
2 63403  43.0033 151.4706 0000930 282.4185  77.6563 15.27563687 71133
STARLINK-33711          
1 63404U 25065F   26188.27260730  .00009818  00000+0  36600-3 0  9990
2 63404  43.0038 151.3061 0002596 242.4697 117.5891 15.27565053 71133
STARLINK-33708          
1 63405U 25065G   26188.36370814  .00011053  00000+0  41074-3 0  9991
2 63405  42.9981 151.1310 0001148  12.5714 347.5166 15.27567370 71147
STARLINK-33690          
1 63406U 25065H   26188.26795240  .00013639  00000+0  50422-3 0  9994
2 63406  43.0025 147.8111 0001005 274.0344  86.0393 15.27581359 71179
STARLINK-33694          
1 63407U 25065J   26188.22521427  .00011378  00000+0  42252-3 0  9995
2 63407  43.0029 151.8048 0001748 256.6553 103.4104 15.27565687 71125
STARLINK-33692          
1 63408U 25065K   26188.33378540  .00009305  00000+0  34706-3 0  9996
2 63408  42.9975 155.2187 0001038 311.2392  48.8370 15.27595482 71096
STARLINK-33693          
1 63409U 25065L   26188.30857677  .00023918  00000+0  87528-3 0  9993
2 63409  42.9996 151.5675 0001545 249.2165 110.8521 15.27601927 71137
