OBJECT_NAME,OBJECT_ID,EPOCH,MEAN_MOTION,ECCENTRICITY,INCLINATION,RA_OF_ASC_NODE,ARG_OF_PERICENTER,MEAN_ANOMALY,EPHEMERIS_TYPE,CLASSIFICATION_TYPE,NORAD_CAT_ID,ELEMENT_SET_NO,REV_AT_EPOCH,BSTAR,MEAN_MOTION_DOT,MEAN_MOTION_DDOT
STARLINK-33614,2025-063K,2026-07-07T10:47:24.463680,15.34379330,.00010756,53.1586,212.7555,100.7442,259.3682,0,U,63372,999,7314,.42737239E-3,.14081E-3,0
STARLINK-33617,2025-063L,2026-07-07T10:56:28.270464,15.34400527,.0001462,53.1595,212.7882,79.2489,280.8678,0,U,63373,999,7309,.37274665E-3,.12238E-3,0
STARLINK-33618,2025-063M,2026-07-07T11:14:32.747712,15.34385946,.00010807,53.1585,212.1608,91.7086,268.4041,0,U,63374,999,7315,.43823732E-3,.14452E-3,0
STARLINK-33621,2025-063N,2026-07-07T14:00:01.999872,15.34378575,.00012545,53.1586,211.6953,58.2456,182.1239,0,U,63375,999,588,.81327877E-3,.27183E-3,0
STARLINK-33539,2025-063P,2026-07-06T14:26:51.127296,15.30190437,.00016063,53.1575,230.1816,146.9648,213.1453,0,U,63376,999,7277,.63874534E-3,.186E-3,0
STARLINK-33634,2025-063Q,2026-07-07T02:18:24.285888,15.30180030,.00011277,53.1572,217.6490,58.0283,302.0827,0,U,63377,999,7304,.5806791E-3,.16867E-3,0
STARLINK-33640,2025-063R,2026-07-07T02:26:00.037248,15.30176214,.00010553,53.1570,217.6798,89.1082,271.0040,0,U,63378,999,7304,.38404918E-3,.11024E-3,0
STARLINK-33636,2025-063S,2026-07-07T02:18:02.621952,15.40775179,.00043744,53.1583,214.8254,45.1964,314.9396,0,U,63379,999,7303,.1550912E-2,.64603E-3,0
STARLINK-33653,2025-063T,2026-07-07T02:25:37.912800,15.31681063,.00010936,53.1576,217.6827,63.3503,296.7611,0,U,63380,999,7299,.49323366E-3,.14962E-3,0
STARLINK-33643,2025-063U,2026-07-07T02:33:36.129024,15.30173430,.00011142,53.1563,217.7144,95.4775,264.6353,0,U,63381,999,7304,.50514077E-3,.14619E-3,0
STARLINK-33748,2025-063W,2026-07-07T03:23:28.222368,15.34408317,.00011578,53.1569,227.8702,88.7961,271.3174,0,U,63383,999,7290,.57629718E-3,.1915E-3,0
STARLINK-33658,2025-063X,2026-07-06T08:00:44.335872,15.34379394,.00011714,53.1578,217.8724,98.9191,261.1944,0,U,63384,999,7297,.64148673E-3,.21345E-3,0
STARLINK-33616,2025-063Y,2026-07-06T10:20:47.385600,15.34372166,.00010822,53.1577,231.2679,93.1981,266.9145,0,U,63385,999,7274,.42441379E-3,.13977E-3,0
STARLINK-33571,2025-063Z,2026-07-07T02:28:13.517472,15.34369732,.00010739,53.1584,226.1987,69.7677,290.3441,0,U,63386,999,7287,.42692178E-3,.14061E-3,0
STARLINK-33533,2025-063AA,2026-07-06T11:02:16.185984,15.34353752,.0001043,53.1573,217.2425,108.7914,251.3202,0,U,63387,999,7294,.53895825E-3,.1785E-3,0
STARLINK-33629,2025-063AB,2026-07-07T02:31:09.353568,15.34366997,.00010298,53.1564,214.1549,105.9214,254.1902,0,U,63388,999,7309,.38067706E-3,.12494E-3,0
STARLINK-33656,2025-063AC,2026-07-07T02:38:56.326560,15.31679582,.00011279,53.1574,217.0305,100.1034,260.0094,0,U,63389,999,7305,.36867999E-3,.11085E-3,0
LEMUR-2-BALTO,2025-052BH,2026-07-07T04:43:04.141344,15.00313404,.00056486,97.6926,81.5775,359.1139,1.0073,0,U,63395,999,7176,.31219968E-3,.3856E-4,0
TJS-16,2025-064A,2026-07-07T16:13:16.728384,1.00271284,.0002653,1.1477,81.3420,294.4347,313.8106,0,U,63397,999,459,0,-.9E-6,0
STARLINK-33531,2025-065A,2026-07-07T08:45:35.466912,15.27569977,.00014978,42.9974,151.1472,11.9819,348.1068,0,U,63399,999,7114,.40252256E-3,.10827E-3,0
STARLINK-33652,2025-065B,2026-07-07T06:34:21.875520,15.27621377,.00030532,43.0078,151.3110,255.9304,104.1208,0,U,63400,999,7113,.90864301E-3,.24859E-3,0
STARLINK-33707,2025-065C,2026-07-07T08:40:01.701120,15.27568574,.00019507,43.0036,151.1175,280.7535,79.3097,0,U,63401,999,7114,.44057888E-3,.11877E-3,0
STARLINK-33668,2025-065D,2026-07-07T09:05:55.259520,15.27583023,.00007298,42.9965,151.2481,314.4254,45.6537,0,U,63402,999,7114,.29092843E-3,.7753E-4,0
STARLINK-33676,2025-065E,2026-07-07T07:04:01.451136,15.27563687,.00009305,43.0033,151.4706,282.4185,77.6563,0,U,63403,999,7113,.45996187E-3,.1241E-3,0
STARLINK-33711,2025-065F,2026-07-07T06:32:33.270720,15.27565053,.00025967,43.0038,151.3061,242.4697,117.5891,0,U,63404,999,7113,.36600162E-3,.9818E-4,0
STARLINK-33708,2025-065G,2026-07-07T08:43:44.383296,15.27567370,.00011488,42.9981,151.1310,12.5714,347.5166,0,U,63405,999,7114,.41074355E-3,.11053E-3,0
STARLINK-33690,2025-065H,2026-07-07T06:25:51.087360,15.27581359,.00010055,43.0025,147.8111,274.0344,86.0393,0,U,63406,999,7117,.50422025E-3,.13639E-3,0
STARLINK-33694,2025-065J,2026-07-07T05:24:18.512928,15.27565687,.00017483,43.0029,151.8048,256.6553,103.4104,0,U,63407,999,7112,.42252108E-3,.11378E-3,0
STARLINK-33692,2025-065K,2026-07-07T08:00:39.058560,15.27595482,.00010389,42.9975,155.2187,311.2392,48.8370,0,U,63408,999,7109,.34706161E-3,.9305E-4,0
STARLINK-33693,2025-065L,2026-07-07T07:24:21.032928,15.27601927,.0001545,42.9996,151.5675,249.2165,110.8521,0,U,63409,999,7113,.87527656E-3,.23918E-3,0
